ORBCOMM FM115 [+]       
1 41186U 15081H   24004.11476121  .00000837  00000+0  20738-3 0  9998
2 41186  47.0003  35.9525 0000862 237.2021 122.8782 14.60233220430244
ORBCOMM FM108 [+]       
1 41187U 15081J   24004.00938221  .00000877  00000+0  23422-3 0  9998
2 41187  47.0053  86.7500 0001599  17.6785 342.4155 14.56182949429475
ORBCOMM FM117 [+]       
1 41188U 15081K   24004.59284157  .00000922  00000+0  24442-3 0  9999
2 41188  47.0013  82.9417 0001903  46.1017 314.0025 14.56172734429608
ORBCOMM FM116 [+]       
1 41189U 15081L   24004.51362148  .00000533  00000+0  15715-3 0  9990
2 41189  47.0004 173.1249 0002297 161.7604 198.3363 14.56148560428403
